[{"OBJECT_NAME":"COSMOS 2540","OBJECT_ID":"2019-057A","EPOCH":"2026-03-09T23:58:22.659168","MEAN_MOTION":13.85929585,"ECCENTRICITY":0.00166088,"INCLINATION":99.2113,"RA_OF_ASC_NODE":82.2282,"ARG_OF_PERICENTER":78.0483,"MEAN_ANOMALY":282.2534,"EPHEMERIS_TYPE":0,"CLASSIFICATION_TYPE":"U","NORAD_CAT_ID":44517,"ELEMENT_SET_NO":999,"REV_AT_EPOCH":33013,"BSTAR":0.0001145512,"MEAN_MOTION_DOT":8.8e-7,"MEAN_MOTION_DDOT":0},{"OBJECT_NAME":"SL-8 R\/B","OBJECT_ID":"1981-053B","EPOCH":"2026-03-09T18:22:25.749984","MEAN_MOTION":13.76634531,"ECCENTRICITY":0.0036225,"INCLINATION":82.9575,"RA_OF_ASC_NODE":301.4709,"ARG_OF_PERICENTER":290.996,"MEAN_ANOMALY":68.7323,"EPHEMERIS_TYPE":0,"CLASSIFICATION_TYPE":"U","NORAD_CAT_ID":12508,"ELEMENT_SET_NO":999,"REV_AT_EPOCH":25373,"BSTAR":4.655481e-5,"MEAN_MOTION_DOT":6.1e-7,"MEAN_MOTION_DDOT":0}]
